{
  "norad_id": 68440,
  "name": "TRANSPORTER-16 OBJECT AA",
  "history": [
    {
      "epoch": "2026-04-14T03:19:45.239520Z",
      "apogee_km": 512.6584055104086,
      "perigee_km": 511.87097040550907,
      "latitude_deg": -3.849407326993419e-05,
      "longitude_deg": 171.29726680564798,
      "height_km": 514.9731010564617,
      "semi_major_axis_km": 6890.4016879579585,
      "eccentricity": 5.714e-05,
      "inclination_deg": 97.4467,
      "raan_deg": 63.5552,
      "arg_perigee_deg": 343.7655,
      "mean_anomaly_deg": 16.356,
      "mean_motion_rev_day": 15.17874801
    },
    {
      "epoch": "2026-04-16T02:47:37.138848Z",
      "apogee_km": 512.3454857335119,
      "perigee_km": 511.94819196736444,
      "latitude_deg": 7.927896001865583e-05,
      "longitude_deg": 179.327813497805,
      "height_km": 515.0883096144352,
      "semi_major_axis_km": 6890.283838850438,
      "eccentricity": 2.883e-05,
      "inclination_deg": 97.4471,
      "raan_deg": 65.5013,
      "arg_perigee_deg": 316.9202,
      "mean_anomaly_deg": 43.201,
      "mean_motion_rev_day": 15.17913743
    },
    {
      "epoch": "2026-04-17T10:26:09.147840Z",
      "apogee_km": 512.3012945285691,
      "perigee_km": 511.8138821633902,
      "latitude_deg": 2.1498840382085786e-05,
      "longitude_deg": 64.69255238889818,
      "height_km": 515.1060995856404,
      "semi_major_axis_km": 6890.194588345979,
      "eccentricity": 3.537e-05,
      "inclination_deg": 97.4478,
      "raan_deg": 66.7989,
      "arg_perigee_deg": 279.0473,
      "mean_anomaly_deg": 81.0721,
      "mean_motion_rev_day": 15.17943236
    },
    {
      "epoch": "2026-04-20T20:42:06.352128Z",
      "apogee_km": 512.1406672014991,
      "perigee_km": 511.2792985317001,
      "latitude_deg": 9.190855015258865e-06,
      "longitude_deg": -89.30023978476333,
      "height_km": 515.2135133365362,
      "semi_major_axis_km": 6889.846982866599,
      "eccentricity": 6.251e-05,
      "inclination_deg": 97.4487,
      "raan_deg": 70.173,
      "arg_perigee_deg": 194.6185,
      "mean_anomaly_deg": 165.5031,
      "mean_motion_rev_day": 15.18058112
    },
    {
      "epoch": "2026-04-21T22:00:46.956096Z",
      "apogee_km": 512.1338405443075,
      "perigee_km": 511.05118844840035,
      "latitude_deg": -1.765003434262258e-05,
      "longitude_deg": -108.97071948707341,
      "height_km": 515.2045671571103,
      "semi_major_axis_km": 6889.729514496354,
      "eccentricity": 7.857e-05,
      "inclination_deg": 97.4485,
      "raan_deg": 71.2112,
      "arg_perigee_deg": 194.0506,
      "mean_anomaly_deg": 166.0706,
      "mean_motion_rev_day": 15.18096936
    },
    {
      "epoch": "2026-04-22T18:34:40.937088Z",
      "apogee_km": 512.1676918411622,
      "perigee_km": 510.86279170657053,
      "latitude_deg": -6.4667110555159145e-06,
      "longitude_deg": -57.4470181613812,
      "height_km": 515.244548665673,
      "semi_major_axis_km": 6889.652241773866,
      "eccentricity": 9.47e-05,
      "inclination_deg": 97.4483,
      "raan_deg": 72.0544,
      "arg_perigee_deg": 190.0915,
      "mean_anomaly_deg": 170.03,
      "mean_motion_rev_day": 15.18122476
    },
    {
      "epoch": "2026-04-24T08:32:35.516832Z",
      "apogee_km": 512.1620022380175,
      "perigee_km": 510.5539941054449,
      "latitude_deg": -8.939559967598765e-05,
      "longitude_deg": 93.07350061289101,
      "height_km": 515.2487434942791,
      "semi_major_axis_km": 6889.494998171731,
      "eccentricity": 0.0001167,
      "inclination_deg": 97.4482,
      "raan_deg": 73.6115,
      "arg_perigee_deg": 180.9659,
      "mean_anomaly_deg": 179.1572,
      "mean_motion_rev_day": 15.1817445
    },
    {
      "epoch": "2026-04-25T13:00:57.877920Z",
      "apogee_km": 512.1548844862218,
      "perigee_km": 510.24516026361925,
      "latitude_deg": -1.0864828750433586e-05,
      "longitude_deg": 25.978779038567602,
      "height_km": 515.2374069828911,
      "semi_major_axis_km": 6889.33702237492,
      "eccentricity": 0.0001386,
      "inclination_deg": 97.4481,
      "raan_deg": 74.7793,
      "arg_perigee_deg": 174.6203,
      "mean_anomaly_deg": 185.5046,
      "mean_motion_rev_day": 15.18226669
    },
    {
      "epoch": "2026-04-25T13:00:57.878784Z",
      "apogee_km": 512.1550911663317,
      "perigee_km": 510.2449535835085,
      "latitude_deg": -1.1196079873597717e-05,
      "longitude_deg": 25.978775471775037,
      "height_km": 515.2376127992148,
      "semi_major_axis_km": 6889.33702237492,
      "eccentricity": 0.00013863,
      "inclination_deg": 97.4481,
      "raan_deg": 74.7793,
      "arg_perigee_deg": 174.6203,
      "mean_anomaly_deg": 185.5046,
      "mean_motion_rev_day": 15.18226669
    },
    {
      "epoch": "2026-04-27T20:22:37.144128Z",
      "apogee_km": 512.1351246527875,
      "perigee_km": 509.5930832454296,
      "latitude_deg": -1.0045128789512606e-05,
      "longitude_deg": -84.43692071475105,
      "height_km": 515.2124861044853,
      "semi_major_axis_km": 6889.001103949108,
      "eccentricity": 0.0001845,
      "inclination_deg": 97.4477,
      "raan_deg": 77.0508,
      "arg_perigee_deg": 173.0071,
      "mean_anomaly_deg": 187.1189,
      "mean_motion_rev_day": 15.18337717
    },
    {
      "epoch": "2026-04-28T20:06:07.045056Z",
      "apogee_km": 512.104854345549,
      "perigee_km": 509.3837462319343,
      "latitude_deg": 1.6524671990534387e-06,
      "longitude_deg": -80.31225871562253,
      "height_km": 515.1746806420899,
      "semi_major_axis_km": 6888.881300288741,
      "eccentricity": 0.0001975,
      "inclination_deg": 97.4481,
      "raan_deg": 78.0244,
      "arg_perigee_deg": 170.955,
      "mean_anomaly_deg": 189.172,
      "mean_motion_rev_day": 15.18377325
    },
    {
      "epoch": "2026-04-29T18:14:40.842816Z",
      "apogee_km": 512.114409999188,
      "perigee_km": 509.1329543759375,
      "latitude_deg": -9.725548014638984e-06,
      "longitude_deg": -52.45355019044926,
      "height_km": 515.1643201973857,
      "semi_major_axis_km": 6888.760682187562,
      "eccentricity": 0.0002164,
      "inclination_deg": 97.4487,
      "raan_deg": 78.9333,
      "arg_perigee_deg": 167.2703,
      "mean_anomaly_deg": 192.8586,
      "mean_motion_rev_day": 15.18417204
    },
    {
      "epoch": "2026-04-30T14:48:18.883008Z",
      "apogee_km": 512.1347878402375,
      "perigee_km": 508.88527526251437,
      "latitude_deg": 2.1139399792363476e-05,
      "longitude_deg": -0.8626477024805946,
      "height_km": 515.1568210328294,
      "semi_major_axis_km": 6888.647031551375,
      "eccentricity": 0.00023586,
      "inclination_deg": 97.449,
      "raan_deg": 79.7771,
      "arg_perigee_deg": 163.8271,
      "mean_anomaly_deg": 196.3039,
      "mean_motion_rev_day": 15.18454781
    },
    {
      "epoch": "2026-05-02T09:30:21.737088Z",
      "apogee_km": 512.1123927123108,
      "perigee_km": 508.3540979064692,
      "latitude_deg": 8.004291051111195e-05,
      "longitude_deg": 78.62449098441505,
      "height_km": 515.1066548561173,
      "semi_major_axis_km": 6888.370245309389,
      "eccentricity": 0.0002728,
      "inclination_deg": 97.4494,
      "raan_deg": 81.5298,
      "arg_perigee_deg": 162.0042,
      "mean_anomaly_deg": 198.129,
      "mean_motion_rev_day": 15.18546303
    },
    {
      "epoch": "2026-05-03T09:13:39.753696Z",
      "apogee_km": 512.0902921900442,
      "perigee_km": 508.1094423397144,
      "latitude_deg": 8.468314848926722e-05,
      "longitude_deg": 82.79940425466863,
      "height_km": 515.0787533797813,
      "semi_major_axis_km": 6888.236867264879,
      "eccentricity": 0.00028896,
      "inclination_deg": 97.4496,
      "raan_deg": 82.504,
      "arg_perigee_deg": 161.9715,
      "mean_anomaly_deg": 198.1623,
      "mean_motion_rev_day": 15.18590409
    },
    {
      "epoch": "2026-05-04T07:22:02.350560Z",
      "apogee_km": 512.0704245313273,
      "perigee_km": 507.89457096701153,
      "latitude_deg": 4.2906396403986105e-05,
      "longitude_deg": 110.70511165643322,
      "height_km": 515.0369290768111,
      "semi_major_axis_km": 6888.119497749169,
      "eccentricity": 0.00030312,
      "inclination_deg": 97.4498,
      "raan_deg": 83.4131,
      "arg_perigee_deg": 160.5163,
      "mean_anomaly_deg": 199.6188,
      "mean_motion_rev_day": 15.18629223
    },
    {
      "epoch": "2026-05-05T19:44:17.261664Z",
      "apogee_km": 511.9491618524271,
      "perigee_km": 507.5395402114973,
      "latitude_deg": 2.396563121868338e-05,
      "longitude_deg": -74.85741716310375,
      "height_km": 514.839426622676,
      "semi_major_axis_km": 6887.881351031962,
      "eccentricity": 0.0003201,
      "inclination_deg": 97.4492,
      "raan_deg": 84.9064,
      "arg_perigee_deg": 155.694,
      "mean_anomaly_deg": 204.4446,
      "mean_motion_rev_day": 15.18707983
    }
  ]
}